ONEWEB-0225             
1 48799U 21045AJ  25261.15363148  .00000110  00000+0  25918-3 0  9995
2 48799  87.9025 313.4902 0001218 100.3648 259.7619 13.15549244208654
ONEWEB-0215             
1 48800U 21045AK  25261.04747376  .00000088  00000+0  19874-3 0  9993
2 48800  87.9032 313.4635 0001300 110.5218 249.6052 13.15547478208517
ONEWEB-0216             
1 48801U 21045AL  25261.13304990  .00000208  00000+0  51803-3 0  9997
2 48801  87.9021 313.4870 0001806  91.7271 268.4066 13.15546887208536
ONEWEB-0239             
1 48802U 21045AM  25261.06172660  .00000163  00000+0  39827-3 0  9999
2 48802  87.9023 313.5155 0001453 121.1144 239.0129 13.15549774208566
ONEWEB-0249             
1 48967U 21060A   25261.05898275  .00000164  00000+0  39517-3 0  9991
2 48967  87.8979 283.0147 0001873  95.4228 264.7117 13.16595248203803
ONEWEB-0250             
1 48968U 21060B   25261.01790719  .00000091  00000+0  17822-3 0  9996
2 48968  87.8978 281.6699 0002189 119.0077 241.1279 13.25813812204152
ONEWEB-0252             
1 48970U 21060D   25261.01464133  .00000060  00000+0  12366-3 0  9991
2 48970  87.8980 283.0168 0001957  82.7417 277.3937 13.16595667203843
ONEWEB-0253             
1 48971U 21060E   25261.00355797  .00000083  00000+0  18356-3 0  9996
2 48971  87.8979 283.0223 0001665  92.9938 267.1384 13.16595680203771
ONEWEB-0254             
1 48972U 21060F   25261.01307165  .00000062  00000+0  12843-3 0  9996
2 48972  87.8983 283.0078 0001595 101.8237 258.3072 13.16594569203770
ONEWEB-0255             
1 48973U 21060G   25261.05105445  .00000162  00000+0  39022-3 0  9997
2 48973  87.8972 283.0261 0001646  97.0352 263.0966 13.16596024203856
ONEWEB-0256             
1 48974U 21060H   25261.00118354  .00000065  00000+0  13648-3 0  9994
2 48974  87.8970 283.0461 0001940  88.5366 271.5988 13.16595395203818
ONEWEB-0257             
1 48975U 21060J   25261.03364930  .00000105  00000+0  24017-3 0  9998
2 48975  87.8980 283.0097 0001698  92.3471 267.7854 13.16595188203779
ONEWEB-0258             
1 48976U 21060K   25261.03522159  .00000034  00000+0  56441-4 0  9996
2 48976  87.8973 283.0323 0001912  95.0363 265.0987 13.16595629203782
ONEWEB-0259             
1 48977U 21060L   25261.02889899  .00000066  00000+0  13813-3 0  9993
2 48977  87.8977 283.0198 0001758  96.8730 263.2602 13.16595001203814
ONEWEB-0260             
1 48978U 21060M   25261.02018321  .00000030  00000+0  46099-4 0  9992
2 48978  87.8969 283.0442 0001934  77.3462 282.7885 13.16595586203794
ONEWEB-0261             
1 48979U 21060N   25261.06611447  .00000121  00000+0  28158-3 0  9991
2 48979  87.8972 283.0369 0001452  88.7631 271.3666 13.16594565203850
