[{"OBJECT_NAME":"ONEWEB-0225","OBJECT_ID":"2021-045AJ","EPOCH":"2025-09-18T03:41:13.759872","MEAN_MOTION":13.15549244,"ECCENTRICITY":0.00012188,"INCLINATION":87.9025,"RA_OF_ASC_NODE":313.4902,"ARG_OF_PERICENTER":100.3648,"MEAN_ANOMALY":259.7619,"EPHEMERIS_TYPE":0,"CLASSIFICATION_TYPE":"U","NORAD_CAT_ID":48799,"ELEMENT_SET_NO":999,"REV_AT_EPOCH":20865,"BSTAR":0.00025918145,"MEAN_MOTION_DOT":1.1e-6,"MEAN_MOTION_DDOT":0},{"OBJECT_NAME":"ONEWEB-0215","OBJECT_ID":"2021-045AK","EPOCH":"2025-09-18T01:08:21.732864","MEAN_MOTION":13.15547478,"ECCENTRICITY":0.00013007,"INCLINATION":87.9032,"RA_OF_ASC_NODE":313.4635,"ARG_OF_PERICENTER":110.5218,"MEAN_ANOMALY":249.6052,"EPHEMERIS_TYPE":0,"CLASSIFICATION_TYPE":"U","NORAD_CAT_ID":48800,"ELEMENT_SET_NO":999,"REV_AT_EPOCH":20851,"BSTAR":0.00019873973,"MEAN_MOTION_DOT":8.8e-7,"MEAN_MOTION_DDOT":0},{"OBJECT_NAME":"ONEWEB-0216","OBJECT_ID":"2021-045AL","EPOCH":"2025-09-18T03:11:35.511360","MEAN_MOTION":13.15546887,"ECCENTRICITY":0.00018066,"INCLINATION":87.9021,"RA_OF_ASC_NODE":313.487,"ARG_OF_PERICENTER":91.7271,"MEAN_ANOMALY":268.4066,"EPHEMERIS_TYPE":0,"CLASSIFICATION_TYPE":"U","NORAD_CAT_ID":48801,"ELEMENT_SET_NO":999,"REV_AT_EPOCH":20853,"BSTAR":0.00051803261,"MEAN_MOTION_DOT":2.08e-6,"MEAN_MOTION_DDOT":0},{"OBJECT_NAME":"ONEWEB-0239","OBJECT_ID":"2021-045AM","EPOCH":"2025-09-18T01:28:53.178240","MEAN_MOTION":13.15549774,"ECCENTRICITY":0.00014535,"INCLINATION":87.9023,"RA_OF_ASC_NODE":313.5155,"ARG_OF_PERICENTER":121.1144,"MEAN_ANOMALY":239.0129,"EPHEMERIS_TYPE":0,"CLASSIFICATION_TYPE":"U","NORAD_CAT_ID":48802,"ELEMENT_SET_NO":999,"REV_AT_EPOCH":20856,"BSTAR":0.00039826823,"MEAN_MOTION_DOT":1.63e-6,"MEAN_MOTION_DDOT":0},{"OBJECT_NAME":"ONEWEB-0249","OBJECT_ID":"2021-060A","EPOCH":"2025-09-18T01:24:56.109600","MEAN_MOTION":13.16595248,"ECCENTRICITY":0.00018739,"INCLINATION":87.8979,"RA_OF_ASC_NODE":283.0147,"ARG_OF_PERICENTER":95.4228,"MEAN_ANOMALY":264.7117,"EPHEMERIS_TYPE":0,"CLASSIFICATION_TYPE":"U","NORAD_CAT_ID":48967,"ELEMENT_SET_NO":999,"REV_AT_EPOCH":20380,"BSTAR":0.00039517173,"MEAN_MOTION_DOT":1.64e-6,"MEAN_MOTION_DDOT":0},{"OBJECT_NAME":"ONEWEB-0250","OBJECT_ID":"2021-060B","EPOCH":"2025-09-18T00:25:47.181216","MEAN_MOTION":13.25813812,"ECCENTRICITY":0.00021894,"INCLINATION":87.8978,"RA_OF_ASC_NODE":281.6699,"ARG_OF_PERICENTER":119.0077,"MEAN_ANOMALY":241.1279,"EPHEMERIS_TYPE":0,"CLASSIFICATION_TYPE":"U","NORAD_CAT_ID":48968,"ELEMENT_SET_NO":999,"REV_AT_EPOCH":20415,"BSTAR":0.00017821759,"MEAN_MOTION_DOT":9.1e-7,"MEAN_MOTION_DDOT":0},{"OBJECT_NAME":"ONEWEB-0252","OBJECT_ID":"2021-060D","EPOCH":"2025-09-18T00:21:05.010912","MEAN_MOTION":13.16595667,"ECCENTRICITY":0.00019578,"INCLINATION":87.898,"RA_OF_ASC_NODE":283.0168,"ARG_OF_PERICENTER":82.7417,"MEAN_ANOMALY":277.3937,"EPHEMERIS_TYPE":0,"CLASSIFICATION_TYPE":"U","NORAD_CAT_ID":48970,"ELEMENT_SET_NO":999,"REV_AT_EPOCH":20384,"BSTAR":0.0001236591,"MEAN_MOTION_DOT":6.0e-7,"MEAN_MOTION_DDOT":0},{"OBJECT_NAME":"ONEWEB-0253","OBJECT_ID":"2021-060E","EPOCH":"2025-09-18T00:05:07.408608","MEAN_MOTION":13.1659568,"ECCENTRICITY":0.00016652,"INCLINATION":87.8979,"RA_OF_ASC_NODE":283.0223,"ARG_OF_PERICENTER":92.9938,"MEAN_ANOMALY":267.1384,"EPHEMERIS_TYPE":0,"CLASSIFICATION_TYPE":"U","NORAD_CAT_ID":48971,"ELEMENT_SET_NO":999,"REV_AT_EPOCH":20377,"BSTAR":0.00018355645,"MEAN_MOTION_DOT":8.3e-7,"MEAN_MOTION_DDOT":0},{"OBJECT_NAME":"ONEWEB-0254","OBJECT_ID":"2021-060F","EPOCH":"2025-09-18T00:18:49.390560","MEAN_MOTION":13.16594569,"ECCENTRICITY":0.00015951,"INCLINATION":87.8983,"RA_OF_ASC_NODE":283.0078,"ARG_OF_PERICENTER":101.8237,"MEAN_ANOMALY":258.3072,"EPHEMERIS_TYPE":0,"CLASSIFICATION_TYPE":"U","NORAD_CAT_ID":48972,"ELEMENT_SET_NO":999,"REV_AT_EPOCH":20377,"BSTAR":0.00012842653,"MEAN_MOTION_DOT":6.2e-7,"MEAN_MOTION_DDOT":0},{"OBJECT_NAME":"ONEWEB-0255","OBJECT_ID":"2021-060G","EPOCH":"2025-09-18T01:13:31.104480","MEAN_MOTION":13.16596024,"ECCENTRICITY":0.00016465,"INCLINATION":87.8972,"RA_OF_ASC_NODE":283.0261,"ARG_OF_PERICENTER":97.0352,"MEAN_ANOMALY":263.0966,"EPHEMERIS_TYPE":0,"CLASSIFICATION_TYPE":"U","NORAD_CAT_ID":48973,"ELEMENT_SET_NO":999,"REV_AT_EPOCH":20385,"BSTAR":0.00039021949,"MEAN_MOTION_DOT":1.62e-6,"MEAN_MOTION_DDOT":0},{"OBJECT_NAME":"ONEWEB-0256","OBJECT_ID":"2021-060H","EPOCH":"2025-09-18T00:01:42.257856","MEAN_MOTION":13.16595395,"ECCENTRICITY":0.00019401,"INCLINATION":87.897,"RA_OF_ASC_NODE":283.0461,"ARG_OF_PERICENTER":88.5366,"MEAN_ANOMALY":271.5988,"EPHEMERIS_TYPE":0,"CLASSIFICATION_TYPE":"U","NORAD_CAT_ID":48974,"ELEMENT_SET_NO":999,"REV_AT_EPOCH":20381,"BSTAR":0.0001364841,"MEAN_MOTION_DOT":6.5e-7,"MEAN_MOTION_DDOT":0},{"OBJECT_NAME":"ONEWEB-0257","OBJECT_ID":"2021-060J","EPOCH":"2025-09-18T00:48:27.299520","MEAN_MOTION":13.16595188,"ECCENTRICITY":0.00016983,"INCLINATION":87.898,"RA_OF_ASC_NODE":283.0097,"ARG_OF_PERICENTER":92.3471,"MEAN_ANOMALY":267.7854,"EPHEMERIS_TYPE":0,"CLASSIFICATION_TYPE":"U","NORAD_CAT_ID":48975,"ELEMENT_SET_NO":999,"REV_AT_EPOCH":20377,"BSTAR":0.00024017073,"MEAN_MOTION_DOT":1.05e-6,"MEAN_MOTION_DDOT":0},{"OBJECT_NAME":"ONEWEB-0258","OBJECT_ID":"2021-060K","EPOCH":"2025-09-18T00:50:43.145376","MEAN_MOTION":13.16595629,"ECCENTRICITY":0.00019128,"INCLINATION":87.8973,"RA_OF_ASC_NODE":283.0323,"ARG_OF_PERICENTER":95.0363,"MEAN_ANOMALY":265.0987,"EPHEMERIS_TYPE":0,"CLASSIFICATION_TYPE":"U","NORAD_CAT_ID":48976,"ELEMENT_SET_NO":999,"REV_AT_EPOCH":20378,"BSTAR":5.6440659e-5,"MEAN_MOTION_DOT":3.4e-7,"MEAN_MOTION_DDOT":0},{"OBJECT_NAME":"ONEWEB-0259","OBJECT_ID":"2021-060L","EPOCH":"2025-09-18T00:41:36.872736","MEAN_MOTION":13.16595001,"ECCENTRICITY":0.00017587,"INCLINATION":87.8977,"RA_OF_ASC_NODE":283.0198,"ARG_OF_PERICENTER":96.873,"MEAN_ANOMALY":263.2602,"EPHEMERIS_TYPE":0,"CLASSIFICATION_TYPE":"U","NORAD_CAT_ID":48977,"ELEMENT_SET_NO":999,"REV_AT_EPOCH":20381,"BSTAR":0.00013813377,"MEAN_MOTION_DOT":6.6e-7,"MEAN_MOTION_DDOT":0},{"OBJECT_NAME":"ONEWEB-0260","OBJECT_ID":"2021-060M","EPOCH":"2025-09-18T00:29:03.829344","MEAN_MOTION":13.16595586,"ECCENTRICITY":0.00019345,"INCLINATION":87.8969,"RA_OF_ASC_NODE":283.0442,"ARG_OF_PERICENTER":77.3462,"MEAN_ANOMALY":282.7885,"EPHEMERIS_TYPE":0,"CLASSIFICATION_TYPE":"U","NORAD_CAT_ID":48978,"ELEMENT_SET_NO":999,"REV_AT_EPOCH":20379,"BSTAR":4.6098886e-5,"MEAN_MOTION_DOT":3.0e-7,"MEAN_MOTION_DDOT":0},{"OBJECT_NAME":"ONEWEB-0261","OBJECT_ID":"2021-060N","EPOCH":"2025-09-18T01:35:12.290208","MEAN_MOTION":13.16594565,"ECCENTRICITY":0.00014523,"INCLINATION":87.8972,"RA_OF_ASC_NODE":283.0369,"ARG_OF_PERICENTER":88.7631,"MEAN_ANOMALY":271.3666,"EPHEMERIS_TYPE":0,"CLASSIFICATION_TYPE":"U","NORAD_CAT_ID":48979,"ELEMENT_SET_NO":999,"REV_AT_EPOCH":20385,"BSTAR":0.00028157584,"MEAN_MOTION_DOT":1.21e-6,"MEAN_MOTION_DDOT":0}]
